NORAD_CAT_ID,OBJECT_NAME,OBJECT_TYPE,EPOCH,MEAN_MOTION,ECCENTRICITY,INCLINATION,RA_OF_ASC_NODE,ARG_OF_PERICENTER,MEAN_ANOMALY,BSTAR,MEAN_MOTION_DOT,MEAN_MOTION_DDOT,TLE_LINE0,TLE_LINE1,TLE_LINE2,SEMIMAJOR_AXIS,PERIOD,APOGEE,PERIGEE,DECAYED
51739.0,STARLINK-3516,PAYLOAD,2024-07-07 09:05:16,15.08840417,0.00014,53.2164,178.9137,92.1895,267.9257,2.0208e-05,3.4e-07,0.0,0 STARLINK-3516,1 51739U 22016AB  24189.37866344  .00000034  00000-0  20208-4 0  9994,2 51739  53.2164 178.9137 0001400  92.1895 267.9257 15.08840417132544,6917.879,95.438,540.713,538.776,0.0
51739.0,STARLINK-3516,PAYLOAD,2024-07-08 08:56:03,15.08840228,0.0001384,53.2165,174.4527,92.9552,267.1599,3.5379e-05,2.75e-06,0.0,0 STARLINK-3516,1 51739U 22016AB  24190.37226280  .00000275  00000-0  35379-4 0  9997,2 51739  53.2165 174.4527 0001384  92.9552 267.1599 15.08840228131571,6917.88,95.438,540.702,538.787,0.0
51739.0,STARLINK-3516,PAYLOAD,2024-07-09 05:36:04,15.08828722,0.0001421,53.2165,170.5865,91.3285,268.787,-6.1406e-05,-1.265e-05,0.0,0 STARLINK-3516,1 51739U 22016AB  24191.23338636 -.00001265  00000-0 -61406-4 0  9994,2 51739  53.2165 170.5865 0001421  91.3285 268.7870 15.08828722132824,6917.915,95.438,540.763,538.797,0.0
51739.0,STARLINK-3516,PAYLOAD,2024-07-09 08:46:50,15.08827744,0.0001393,53.2163,169.9917,89.9675,270.1477,-7.718e-05,-1.516e-05,0.0,0 STARLINK-3516,1 51739U 22016AB  24191.36586804 -.00001516  00000-0 -77180-4 0  9995,2 51739  53.2163 169.9917 0001393  89.9675 270.1477 15.08827744131727,6917.918,95.438,540.747,538.819,0.0
51739.0,STARLINK-3516,PAYLOAD,2024-07-09 23:05:19,15.08826638,0.0001421,53.2165,167.317,93.8613,266.2541,-9.7908e-05,-1.845e-05,0.0,0 STARLINK-3516,1 51739U 22016AB  24191.96203260 -.00001845  00000-0 -97908-4 0  9998,2 51739  53.2165 167.3170 0001421  93.8613 266.2541 15.08826638131819,6917.921,95.438,540.769,538.803,0.0
51739.0,STARLINK-3516,PAYLOAD,2024-07-10 08:37:38,15.08830336,0.0001406,53.2164,165.5335,95.46,264.6552,-5.4983e-05,-1.163e-05,0.0,0 STARLINK-3516,1 51739U 22016AB  24192.35947101 -.00001163  00000-0 -54983-4 0  9990,2 51739  53.2164 165.5335 0001406  95.4600 264.6552 15.08830336132992,6917.91,95.438,540.748,538.802,0.0
51739.0,STARLINK-3516,PAYLOAD,2024-07-10 14:59:10,15.08835039,0.0001427,53.2166,164.3441,95.5442,264.5713,-4.2178e-05,-9.59e-06,0.0,0 STARLINK-3516,1 51739U 22016AB  24192.62442912 -.00000959  00000-0 -42178-4 0  9995,2 51739  53.2166 164.3441 0001427  95.5442 264.5713 15.08835039131911,6917.896,95.438,540.748,538.773,0.0
51739.0,STARLINK-3516,PAYLOAD,2024-07-11 03:42:15,15.08827404,0.0001469,53.2168,161.9652,97.6474,262.4685,0.00011619,1.561e-05,0.0,0 STARLINK-3516,1 51739U 22016AB  24193.15434942  .00001561  00000-0  11619-3 0  9991,2 51739  53.2168 161.9652 0001469  97.6474 262.4685 15.08827404131994,6917.919,95.438,540.8,538.768,0.0
51739.0,STARLINK-3516,PAYLOAD,2024-07-12 05:08:26,15.08835931,0.000136,53.2165,157.2067,97.2073,262.9074,0.00015514,2.182e-05,0.0,0 STARLINK-3516,1 51739U 22016AB  24194.21419051  .00002182  00000-0  15514-3 0  9991,2 51739  53.2165 157.2067 0001360  97.2073 262.9074 15.08835931133274,6917.893,95.438,540.699,538.817,0.0
51739.0,STARLINK-3516,PAYLOAD,2024-07-12 14:40:44,15.08845412,0.000143,53.2171,155.4216,79.1904,280.9249,0.00017382,2.48e-05,0.0,0 STARLINK-3516,1 51739U 22016AB  24194.61162603  .00002480  00000-0  17382-3 0  9999,2 51739  53.2171 155.4216 0001430  79.1904 280.9249 15.08845412132219,6917.864,95.437,540.718,538.74,0.0
51739.0,STARLINK-3516,PAYLOAD,2024-07-13 06:34:36,15.08839316,0.0001556,53.2163,152.4468,86.8265,273.2905,4.3941e-05,4.11e-06,0.0,0 STARLINK-3516,1 51739U 22016AB  24195.27403418  .00000411  00000-0  43941-4 0  9997,2 51739  53.2163 152.4468 0001556  86.8265 273.2905 15.08839316133435,6917.882,95.438,540.824,538.671,0.0
51739.0,STARLINK-3516,PAYLOAD,2024-07-13 14:31:31,15.0884775,0.0001566,53.2178,150.962,81.512,278.605,0.00010392,1.367e-05,0.0,0 STARLINK-3516,1 51739U 22016AB  24195.60522737  .00001367  00000-0  10392-3 0  9994,2 51739  53.2178 150.9620 0001566  81.5120 278.6050 15.08847750132369,6917.857,95.437,540.805,538.638,0.0
51739.0,STARLINK-3516,PAYLOAD,2024-07-14 03:14:37,15.08842166,0.0001431,53.2177,148.581,97.7242,262.3913,3.6995e-05,3.01e-06,0.0,0 STARLINK-3516,1 51739U 22016AB  24196.13515228  .00000301  00000-0  36995-4 0  9995,2 51739  53.2177 148.5810 0001431  97.7242 262.3913 15.08842166133564,6917.874,95.437,540.729,538.749,0.0
51739.0,STARLINK-3516,PAYLOAD,2024-07-14 20:43:51,15.08847178,0.0001503,53.2177,145.3085,99.9247,260.1915,8.9991e-05,1.145e-05,0.0,0 STARLINK-3516,1 51739U 22016AB  24196.86378534  .00001145  00000-0  89991-4 0  9993,2 51739  53.2177 145.3085 0001503  99.9247 260.1915 15.08847178132556,6917.858,95.437,540.763,538.684,0.0
51739.0,STARLINK-3516,PAYLOAD,2024-07-15 06:16:10,15.08844793,0.0001168,53.2158,143.5261,96.9693,263.1432,7.2629e-05,8.68e-06,0.0,0 STARLINK-3516,1 51739U 22016AB  24197.26122740  .00000868  00000-0  72629-4 0  9995,2 51739  53.2158 143.5261 0001168  96.9693 263.1432 15.08844793133738,6917.866,95.437,540.539,538.923,0.0
51739.0,STARLINK-3516,PAYLOAD,2024-07-16 02:56:11,15.08839928,0.0001416,53.2173,139.6577,100.3978,259.7174,8.969e-06,-1.45e-06,0.0,0 STARLINK-3516,1 51739U 22016AB  24198.12235179 -.00000145  00000-0  89690-5 0  9998,2 51739  53.2173 139.6577 0001416 100.3978 259.7174 15.08839928133865,6917.881,95.438,540.725,538.766,0.0
51739.0,STARLINK-3516,PAYLOAD,2024-07-16 06:06:58,15.0880638,0.0001556,53.2174,139.0631,112.1173,247.9984,0.00047023,7.197e-05,0.0,0 STARLINK-3516,1 51739U 22016AB  24198.25484011  .00007197  00000-0  47023-3 0  9998,2 51739  53.2174 139.0631 0001556 112.1173 247.9984 15.08806380133880,6917.983,95.44,540.925,538.772,0.0
51739.0,STARLINK-3516,PAYLOAD,2024-07-17 02:46:58,15.08834995,0.0001127,53.2173,135.1968,95.5336,264.5784,-1.2746e-05,-4.91e-06,0.0,0 STARLINK-3516,1 51739U 22016AB  24199.11595622 -.00000491  00000-0 -12746-4 0  9992,2 51739  53.2173 135.1968 0001127  95.5336 264.5784 15.08834995134010,6917.896,95.438,540.54,538.981,0.0
51739.0,STARLINK-3516,PAYLOAD,2024-07-17 12:19:16,15.0884828,0.0001126,53.2169,133.4155,90.6846,269.4275,0.00013067,1.793e-05,0.0,0 STARLINK-3516,1 51739U 22016AB  24199.51338523  .00001793  00000-0  13067-3 0  9991,2 51739  53.2169 133.4155 0001126  90.6846 269.4275 15.08848280134072,6917.855,95.437,540.499,538.941,0.0
51739.0,STARLINK-3516,PAYLOAD,2024-07-18 01:02:23,15.08823471,0.0001153,53.2168,131.0349,88.4745,271.6379,-5.2366e-05,-1.121e-05,0.0,0 STARLINK-3516,1 51739U 22016AB  24200.04332942 -.00001121  00000-0 -52366-4 0  9994,2 51739  53.2168 131.0349 0001153  88.4745 271.6379 15.08823471134157,6917.931,95.439,540.594,538.998,0.0
51739.0,STARLINK-3516,PAYLOAD,2024-07-18 12:10:03,15.08847421,9.58e-05,53.217,128.9533,77.1459,282.9641,0.00014318,1.992e-05,0.0,0 STARLINK-3516,1 51739U 22016AB  24200.50698986  .00001992  00000-0  14318-3 0  9996,2 51739  53.2170 128.9533 0000958  77.1459 282.9641 15.08847421134225,6917.858,95.437,540.385,539.06,0.0
51739.0,STARLINK-3516,PAYLOAD,2024-07-19 04:03:57,15.08828481,0.0001755,53.2175,125.9842,90.2496,269.8698,3.9839e-05,3.46e-06,0.0,0 STARLINK-3516,1 51739U 22016AB  24201.16941142  .00000346  00000-0  39839-4 0  9992,2 51739  53.2175 125.9842 0001755  90.2496 269.8698 15.08828481134325,6917.916,95.438,540.995,538.567,0.0
51739.0,STARLINK-3516,PAYLOAD,2024-07-19 12:00:50,15.08851192,7.24e-05,53.2175,124.4986,94.9502,265.1573,0.00011529,1.548e-05,0.0,0 STARLINK-3516,1 51739U 22016AB  24201.50058982  .00001548  00000-0  11529-3 0  9991,2 51739  53.2175 124.4986 0000724  94.9502 265.1573 15.08851192134373,6917.846,95.437,540.212,539.21,0.0
51739.0,STARLINK-3516,PAYLOAD,2024-07-20 03:54:43,15.08848776,9.78e-05,53.2173,121.5222,92.1368,267.9736,6.638e-05,7.69e-06,0.0,0 STARLINK-3516,1 51739U 22016AB  24202.16299811  .00000769  00000-0  66380-4 0  9992,2 51739  53.2173 121.5222 0000978  92.1368 267.9736 15.08848776134479,6917.854,95.437,540.395,539.042,0.0
51739.0,STARLINK-3516,PAYLOAD,2024-07-20 11:51:37,15.08859377,0.000124,53.2177,120.0357,71.6982,288.4145,0.00014082,1.955e-05,0.0,0 STARLINK-3516,1 51739U 22016AB  24202.49418841  .00001955  00000-0  14082-3 0  9993,2 51739  53.2177 120.0357 0001240  71.6982 288.4145 15.08859377134520,6917.821,95.436,540.544,538.828,0.0
51739.0,STARLINK-3516,PAYLOAD,2024-07-21 02:10:07,15.08847169,0.0001474,53.2173,117.3588,78.5083,281.6075,6.2888e-05,7.13e-06,0.0,0 STARLINK-3516,1 51739U 22016AB  24203.09036246  .00000713  00000-0  62888-4 0  9994,2 51739  53.2173 117.3588 0001474  78.5083 281.6075 15.08847169134611,6917.858,95.437,540.743,538.704,0.0
51739.0,STARLINK-3516,PAYLOAD,2024-07-22 03:36:17,15.08848321,0.0001118,53.2169,112.6,92.7377,267.3743,5.0101e-05,5.1e-06,0.0,0 STARLINK-3516,1 51739U 22016AB  24204.15020207  .00000510  00000-0  50101-4 0  9992,2 51739  53.2169 112.6000 0001118  92.7377 267.3743 15.08848321134773,6917.855,95.437,540.493,538.947,0.0
51739.0,STARLINK-3516,PAYLOAD,2024-07-22 22:40:53,15.08888719,0.0001502,53.2172,109.0303,75.4089,284.7069,-0.00057542,-9.446e-05,0.0,0 STARLINK-3516,1 51739U 22016AB  24204.94505996 -.00009446  00000-0 -57542-3 0  9996,2 51739  53.2172 109.0303 0001502  75.4089 284.7069 15.08888719133776,6917.731,95.434,540.636,538.557,0.0
51739.0,STARLINK-3516,PAYLOAD,2024-07-23 00:16:17,15.08848264,0.0001234,53.2168,108.7326,90.3042,269.8092,0.00015659,2.206e-05,0.0,0 STARLINK-3516,1 51739U 22016AB  24205.01131839  .00002206  00000-0  15659-3 0  9994,2 51739  53.2168 108.7326 0001234  90.3042 269.8092 15.08848264133781,6917.855,95.437,540.574,538.866,0.0
51739.0,STARLINK-3516,PAYLOAD,2024-07-23 17:45:33,15.0883882,0.0001256,53.2175,105.4578,113.2317,246.8807,8.1797e-05,1.014e-05,0.0,0 STARLINK-3516,1 51739U 22016AB  24205.73996533  .00001014  00000-0  81797-4 0  9996,2 51739  53.2175 105.4578 0001256 113.2317 246.8807 15.08838820135010,6917.884,95.438,540.618,538.88,0.0
